PROBA-V
1 39159U 13021A   26119.20077469  .00000078  00000+0  52445-4 0  9996
2 39159  98.3562 100.2339 0002958 280.2437  79.8409 14.23586312674144
